[
    {
        "Altitude(m)": 714396.3346767136,
        "Argument of Periapsis(deg)": 0.007973084830638947,
        "Eccentricity": 0.0,
        "Inclination(deg)": 45.0,
        "Latitude(deg)": -36.72500297824686,
        "Longitude(deg)": 76.56074469888674,
        "Mean Anomaly(deg)": -57.3812483467634,
        "RAAN(deg)": 224.99247364097926,
        "Satellite Name": "Constellation 1 1008",
        "Satellite Number": 1008,
        "Semi-Major Axis(m)": 7083131.272910544,
        "Time(s)": 133
    },
    {
        "Altitude(m)": 714384.5145299156,
        "Argument of Periapsis(deg)": 0.008033032836884352,
        "Eccentricity": 0.0,
        "Inclination(deg)": 45.0,
        "Latitude(deg)": -36.69618074955965,
        "Longitude(deg)": 76.62301214637105,
        "Mean Anomaly(deg)": -57.32054720651357,
        "RAAN(deg)": 224.9924170518137,
        "Satellite Name": "Constellation 1 1008",
        "Satellite Number": 1008,
        "Semi-Major Axis(m)": 7083131.272910544,
        "Time(s)": 134
    },
    {
        "Altitude(m)": 714372.6807546886,
        "Argument of Periapsis(deg)": 0.008092980843129758,
        "Eccentricity": 0.0,
        "Inclination(deg)": 45.0,
        "Latitude(deg)": -36.66732136608243,
        "Longitude(deg)": 76.6852301735277,
        "Mean Anomaly(deg)": -57.25984606626358,
        "RAAN(deg)": 224.99236046264812,
        "Satellite Name": "Constellation 1 1008",
        "Satellite Number": 1008,
        "Semi-Major Axis(m)": 7083131.272910544,
        "Time(s)": 135
    },
    {
        "Altitude(m)": 714360.8333937502,
        "Argument of Periapsis(deg)": 0.008152928849375162,
        "Eccentricity": 0.0,
        "Inclination(deg)": 45.0,
        "Latitude(deg)": -36.638424893366015,
        "Longitude(deg)": 76.74739880586374,
        "Mean Anomaly(deg)": -57.199144926013744,
        "RAAN(deg)": 224.99230387348257,
        "Satellite Name": "Constellation 1 1008",
        "Satellite Number": 1008,
        "Semi-Major Axis(m)": 7083131.272910544,
        "Time(s)": 136
    },
    {
        "Altitude(m)": 714348.9724898661,
        "Argument of Periapsis(deg)": 0.008212876855620568,
        "Eccentricity": 0.0,
        "Inclination(deg)": 45.0,
        "Latitude(deg)": -36.609491396911075,
        "Longitude(deg)": 76.80951806915803,
        "Mean Anomaly(deg)": -57.138443785763776,
        "RAAN(deg)": 224.99224728431696,
        "Satellite Name": "Constellation 1 1008",
        "Satellite Number": 1008,
        "Semi-Major Axis(m)": 7083131.272910544,
        "Time(s)": 137
    },
    {
        "Altitude(m)": 714337.0980858349,
        "Argument of Periapsis(deg)": 0.008272824861865974,
        "Eccentricity": 0.0,
        "Inclination(deg)": 45.0,
        "Latitude(deg)": -36.580520942168306,
        "Longitude(deg)": 76.87158798945912,
        "Mean Anomaly(deg)": -57.077742645513894,
        "RAAN(deg)": 224.9921906951514,
        "Satellite Name": "Constellation 1 1008",
        "Satellite Number": 1008,
        "Semi-Major Axis(m)": 7083131.272910544,
        "Time(s)": 138
    },
    {
        "Altitude(m)": 714325.2102245103,
        "Argument of Periapsis(deg)": 0.00833277286811138,
        "Eccentricity": 0.0,
        "Inclination(deg)": 45.0,
        "Latitude(deg)": -36.55151359453783,
        "Longitude(deg)": 76.93360859308454,
        "Mean Anomaly(deg)": -57.017041505264054,
        "RAAN(deg)": 224.99213410598583,
        "Satellite Name": "Constellation 1 1008",
        "Satellite Number": 1008,
        "Semi-Major Axis(m)": 7083131.272910544,
        "Time(s)": 139
    },
    {
        "Altitude(m)": 714313.3089487874,
        "Argument of Periapsis(deg)": 0.008392720874356788,
        "Eccentricity": 0.0,
        "Inclination(deg)": 45.0,
        "Latitude(deg)": -36.52246941936891,
        "Longitude(deg)": 76.99557990661927,
        "Mean Anomaly(deg)": -56.95634036501407,
        "RAAN(deg)": 224.99207751682027,
        "Satellite Name": "Constellation 1 1008",
        "Satellite Number": 1008,
        "Semi-Major Axis(m)": 7083131.272910544,
        "Time(s)": 140
    },
    {
        "Altitude(m)": 714301.3943016009,
        "Argument of Periapsis(deg)": 0.008452668880602192,
        "Eccentricity": 0.0,
        "Inclination(deg)": 45.0,
        "Latitude(deg)": -36.49338848196015,
        "Longitude(deg)": 77.05750178881709,
        "Mean Anomaly(deg)": -56.89563922476423,
        "RAAN(deg)": 224.99202092765472,
        "Satellite Name": "Constellation 1 1008",
        "Satellite Number": 1008,
        "Semi-Major Axis(m)": 7083131.272910544,
        "Time(s)": 141
    },
    {
        "Altitude(m)": 714289.4663259317,
        "Argument of Periapsis(deg)": 0.008512616886847598,
        "Eccentricity": 0.0,
        "Inclination(deg)": 45.0,
        "Latitude(deg)": -36.464270847558204,
        "Longitude(deg)": 77.11937460298732,
        "Mean Anomaly(deg)": -56.83493808451427,
        "RAAN(deg)": 224.9919643384891,
        "Satellite Name": "Constellation 1 1008",
        "Satellite Number": 1008,
        "Semi-Major Axis(m)": 7083131.272910544,
        "Time(s)": 142
    },
    {
        "Altitude(m)": 714277.5250648158,
        "Argument of Periapsis(deg)": 0.008572564893093004,
        "Eccentricity": 0.0,
        "Inclination(deg)": 45.0,
        "Latitude(deg)": -36.43511658135868,
        "Longitude(deg)": 77.18119820841154,
        "Mean Anomaly(deg)": -56.774236944264516,
        "RAAN(deg)": 224.99190774932356,
        "Satellite Name": "Constellation 1 1008",
        "Satellite Number": 1008,
        "Semi-Major Axis(m)": 7083131.272910544,
        "Time(s)": 143
    },
    {
        "Altitude(m)": 714265.5705613149,
        "Argument of Periapsis(deg)": 0.008632512899338408,
        "Eccentricity": 0.0,
        "Inclination(deg)": 45.0,
        "Latitude(deg)": -36.40592574850492,
        "Longitude(deg)": 77.24297263273097,
        "Mean Anomaly(deg)": -56.713535804014555,
        "RAAN(deg)": 224.99185116015798,
        "Satellite Name": "Constellation 1 1008",
        "Satellite Number": 1008,
        "Semi-Major Axis(m)": 7083131.272910544,
        "Time(s)": 144
    },
    {
        "Altitude(m)": 714253.6028585405,
        "Argument of Periapsis(deg)": 0.008692460905583814,
        "Eccentricity": 0.0,
        "Inclination(deg)": 45.0,
        "Latitude(deg)": -36.37669841408832,
        "Longitude(deg)": 77.3046979038467,
        "Mean Anomaly(deg)": -56.65283466376461,
        "RAAN(deg)": 224.99179457099243,
        "Satellite Name": "Constellation 1 1008",
        "Satellite Number": 1008,
        "Semi-Major Axis(m)": 7083131.272910544,
        "Time(s)": 145
    },
    {
        "Altitude(m)": 714241.6219996519,
        "Argument of Periapsis(deg)": 0.00875240891182922,
        "Eccentricity": 0.0,
        "Inclination(deg)": 45.0,
        "Latitude(deg)": -36.34743464314782,
        "Longitude(deg)": 77.36637404991923,
        "Mean Anomaly(deg)": -56.592133523514725,
        "RAAN(deg)": 224.99173798182682,
        "Satellite Name": "Constellation 1 1008",
        "Satellite Number": 1008,
        "Semi-Major Axis(m)": 7083131.272910544,
        "Time(s)": 146
    },
    {
        "Altitude(m)": 714229.6280278495,
        "Argument of Periapsis(deg)": 0.008812356918074627,
        "Eccentricity": 0.0,
        "Inclination(deg)": 45.0,
        "Latitude(deg)": -36.31813450066957,
        "Longitude(deg)": 77.42800109936711,
        "Mean Anomaly(deg)": -56.531432383264864,
        "RAAN(deg)": 224.99168139266126,
        "Satellite Name": "Constellation 1 1008",
        "Satellite Number": 1008,
        "Semi-Major Axis(m)": 7083131.272910544,
        "Time(s)": 147
    },
    {
        "Altitude(m)": 714217.6209863723,
        "Argument of Periapsis(deg)": 0.008872304924320031,
        "Eccentricity": 0.0,
        "Inclination(deg)": 45.0,
        "Latitude(deg)": -36.28879805158683,
        "Longitude(deg)": 77.48957891276875,
        "Mean Anomaly(deg)": -56.4707312430149,
        "RAAN(deg)": 224.99162480349568,
        "Satellite Name": "Constellation 1 1008",
        "Satellite Number": 1008,
        "Semi-Major Axis(m)": 7083131.272910544,
        "Time(s)": 148
    },
    {
        "Altitude(m)": 714205.6009185036,
        "Argument of Periapsis(deg)": 0.008932252930565437,
        "Eccentricity": 0.0,
        "Inclination(deg)": 45.0,
        "Latitude(deg)": -36.25942536077937,
        "Longitude(deg)": 77.55110785524803,
        "Mean Anomaly(deg)": -56.41003010276494,
        "RAAN(deg)": 224.99156821433013,
        "Satellite Name": "Constellation 1 1008",
        "Satellite Number": 1008,
        "Semi-Major Axis(m)": 7083131.272910544,
        "Time(s)": 149
    },
    {
        "Altitude(m)": 714193.5678675754,
        "Argument of Periapsis(deg)": 0.008992200936810843,
        "Eccentricity": 0.0,
        "Inclination(deg)": 45.0,
        "Latitude(deg)": -36.23001649307385,
        "Longitude(deg)": 77.61258778789218,
        "Mean Anomaly(deg)": -56.34932896251521,
        "RAAN(deg)": 224.99151162516458,
        "Satellite Name": "Constellation 1 1008",
        "Satellite Number": 1008,
        "Semi-Major Axis(m)": 7083131.272910544,
        "Time(s)": 150
    },
    {
        "Altitude(m)": 714181.521876952,
        "Argument of Periapsis(deg)": 0.009052148943056249,
        "Eccentricity": 0.0,
        "Inclination(deg)": 45.0,
        "Latitude(deg)": -36.200571513242714,
        "Longitude(deg)": 77.67401874013842,
        "Mean Anomaly(deg)": -56.28862782226521,
        "RAAN(deg)": 224.99145503599897,
        "Satellite Name": "Constellation 1 1008",
        "Satellite Number": 1008,
        "Semi-Major Axis(m)": 7083131.272910544,
        "Time(s)": 151
    }
]